COSMOS 2534 [GLONASS-M] 
1 44299U 19030A   26197.64953360  .00000052  00000+0  00000+0 0  9997
2 44299  64.3705 191.6243 0013502 275.0108 146.6615  2.13102191 55554
BEIDOU-3 IGSO-2         
1 44337U 19035A   26197.79241899 -.00000135  00000+0  00000+0 0  9991
2 44337  55.2505 158.6024 0039384 216.5508 323.1608  1.00257148 25968
NAVSTAR 78 (USA 293)    
1 44506U 19056A   26197.56780707 -.00000098  00000+0  00000+0 0  9991
2 44506  55.6211 329.9748 0063494 198.1806 164.1170  2.00570038 50664
BEIDOU-3 M24            
1 44542U 19061A   26197.23792348  .00000040  00000+0  00000+0 0  9991
2 44542  54.3974 181.7481 0008646 359.7082   0.2616  1.86229127 46330
BEIDOU-3 M23            
1 44543U 19061B   26197.36472383  .00000041  00000+0  00000+0 0  9991
2 44543  54.3958 181.7121 0005956 340.9242  15.4707  1.86227496 46331
EUTELSAT 5 WEST B       
1 44624U 19067A   26197.83919737 -.00000053  00000+0  00000+0 0  9992
2 44624   0.0817 317.4398 0003087 157.9518 116.3776  1.00272300 24739
BEIDOU-3 M22            
1 44793U 19078A   26194.39343167 -.00000062  00000+0  00000+0 0  9997
2 44793  53.9106 298.9058 0005750  50.3045 309.7753  1.86227300 45134
BEIDOU-3 M21            
1 44794U 19078B   26196.14417837 -.00000066  00000+0  00000+0 0  9993
2 44794  53.8818 298.8044 0003444  48.1201 311.9449  1.86227652 45176
COSMOS 2544 [GLONASS-M] 
1 44850U 19088A   26197.12354412 -.00000013  00000+0  00000+0 0  9997
2 44850  65.5811  72.7655 0012095 253.4960 106.4479  2.13102828 51337
BEIDOU-3 M19            
1 44864U 19090A   26196.14526441 -.00000041  00000+0  00000+0 0  9990
2 44864  56.5835  61.8670 0016849 297.6358 260.7026  1.86231024 44756
BEIDOU-3 M20            
1 44865U 19090B   26195.48425657 -.00000039  00000+0  00000+0 0  9991
2 44865  56.5842  61.9230 0014404 312.7642 251.9859  1.86231156 44727
BEIDOU-3 G2             
1 45344U 20017A   26197.76372832 -.00000151  00000+0  00000+0 0  9999
2 45344   2.9229  47.8283 0002098  61.0937 180.6172  1.00269158 23555
COSMOS 2545 [GLONASS-M] 
1 45358U 20018A   26197.78772744 -.00000065  00000+0  00000+0 0  9997
2 45358  64.3359 311.3788 0009614 229.7682 130.1675  2.13102362 49291
BEIDOU-3 G3             
1 45807U 20040A   26197.86209839 -.00000365  00000+0  00000+0 0  9993
2 45807   2.5183  67.4809 0002220 308.0990 339.9505  1.00275657 22364
NAVSTAR 79 (USA 304)    
1 45854U 20041A   26197.89158627 -.00000081  00000+0  00000+0 0  9992
2 45854  56.6895  27.7915 0065269 204.6832 328.4901  2.00557825 44639
GALAXY 30 (G-30)        
1 46114U 20056C   26197.74413846  .00000000  00000+0  00000+0 0  9999
2 46114   0.0213  57.4672 0002193  59.3250 320.6798  1.00270671 21589
COSMOS 2547 [GLONASS-K] 
1 46805U 20075A   26196.56966866  .00000054  00000+0  00000+0 0  9990
2 46805  64.6014 191.5282 0009458 239.8249 120.0839  2.13099910 44518
NAVSTAR 80 (USA 309)    
1 46826U 20078A   26197.68794786  .00000040  00000+0  00000+0 0  9995
2 46826  53.9770 209.5818 0074587 207.8620 155.6550  2.00564972 42107
NAVSTAR 81 (USA 319)    
1 48859U 21054A   26197.17517183 -.00000099  00000+0  00000+0 0  9991
2 48859  55.1590 331.2941 0026479 228.5486 311.0706  2.00566992 37330
QZS-1R (MICHIBIKI-1R)   
1 49336U 21096A   26195.57629205 -.00000304  00000+0  00000+0 0  9998
2 49336  37.5157  79.1769 0754906 272.2285 280.2291  1.00245239 17281
GSAT0223 (GALILEO 27)   
1 49809U 21116A   26197.02848203 -.00000101  00000+0  00000+0 0  9994
2 49809  57.1502 340.8963 0002435 195.4357 344.9614  1.70476009 28671
GSAT0224 (GALILEO 28)   
1 49810U 21116B   26197.72723838 -.00000103  00000+0  00000+0 0  9991
2 49810  57.1497 340.8759 0001842 181.9610 179.9110  1.70476111 28718
COSMOS 2557 [GLONASS-K] 
1 52984U 22075A   26196.26454493 -.00000064  00000+0  00000+0 0  9994
2 52984  64.2806 313.4964 0010843 271.2690  88.6188  2.13102178 31311
COSMOS 2559 [GLONASS-K] 
1 54031U 22130A   26195.61497873 -.00000064  00000+0  00000+0 0  9998
2 54031  64.2533 313.6016 0013085 181.0015 179.0060  2.13101643 29275
COSMOS 2564 [GLONASS-M] 
1 54377U 22161A   26197.80439203  .00000053  00000+0  00000+0 0  9998
2 54377  64.7439 191.7285 0012216 224.8825 135.0175  2.13101994 28267
NAVSTAR 82 (USA 343)    
1 55268U 23009A   26197.12636435  .00000016  00000+0  00000+0 0  9990
2 55268  55.1242 147.3813 0006259 321.9339 221.1207  2.00569500 25825
BEIDOU-3 G4             
1 56564U 23066A   26197.86790509 -.00000291  00000+0  00000+0 0  9993
2 56564   0.4590 339.4678 0004935 186.0912 221.6472  1.00272013 11691
NVS-01 (IRNSS-1J)       
1 56759U 23076A   26197.50938757 -.00000348  00000+0  00000+0 0  9993
2 56759   2.0982 243.0149 0003519   6.3229 357.7684  1.00264211 11412
COSMOS 2569 [GLONASS-K2]
1 57517U 23114A   26196.87819896 -.00000013  00000+0  00000+0 0  9999
2 57517  65.3185  71.6532 0009655 295.9092  64.0686  2.13103741 22871
BEIDOU-3 M28            
1 58654U 23207A   26196.75809972 -.00000046  00000+0  00000+0 0  9992
2 58654  55.7781  61.3393 0002411   5.4366 354.6394  1.86229674 17377
BEIDOU-3 M26            
1 58655U 23207B   26194.94472015 -.00000041  00000+0  00000+0 0  9991
2 58655  55.7789  61.3870 0002016 324.6613  35.3983  1.86229657 17321
